space_id;space_name;space_longname;spatialzone_name;spatialzone_longname;spatialzone_type;storey_id;storey_name;building_id;building_name;parent_id;parent_name;parent_type;parent_longname
1d142bc7-06a6-49f0-87bb-c23ca05f8c92;1;GFA;;;;;;;;2d99307a-66cd-4439-b173-5c88d252647c;Gross Building;IfcGroup;
88536540-92b3-4cf8-b993-f1005aa89a13;1;GFA 250mm;;;;;;;;fc163a3e-7294-459a-b978-503273033007;Kerrosala;IfcGroup;
91b4cedc-2da1-4880-a019-98ad19f16e10;1;HEATED NETAREA;;;;;;;;a72e48c5-05d6-4017-83b3-c7fee6b88e05;Lämmitetty nettoala;IfcGroup;
1d142bc7-06a6-49f0-87bb-c23ca05f8c92;1;GFA;;;;e3e052f9-0156-11d5-9301-0000863f269a;Level_01;05587af9-f099-4553-a05b-106372672cd3;;e3e052f9-0156-11d5-9301-0000863f269a;Level_01;IfcBuildingStorey;Level_01
88536540-92b3-4cf8-b993-f1005aa89a13;1;GFA 250mm;;;;e3e052f9-0156-11d5-9301-0000863f269a;Level_01;05587af9-f099-4553-a05b-106372672cd3;;e3e052f9-0156-11d5-9301-0000863f269a;Level_01;IfcBuildingStorey;Level_01
91b4cedc-2da1-4880-a019-98ad19f16e10;1;HEATED NETAREA;;;;e3e052f9-0156-11d5-9301-0000863f269a;Level_01;05587af9-f099-4553-a05b-106372672cd3;;e3e052f9-0156-11d5-9301-0000863f269a;Level_01;IfcBuildingStorey;Level_01
896fe30b-f906-4f8f-ae4e-8806fd16f48c;2;GFA;;;;;;;;2d99307a-66cd-4439-b173-5c88d252647c;Gross Building;IfcGroup;
88536540-92b3-4cf8-b993-f1005aa89a19;2;GFA 250mm;;;;;;;;fc163a3e-7294-459a-b978-503273033007;Kerrosala;IfcGroup;
91b4cedc-2da1-4880-a019-98ad19f16e73;2;HEATED NETAREA;;;;;;;;a72e48c5-05d6-4017-83b3-c7fee6b88e05;Lämmitetty nettoala;IfcGroup;
88536540-92b3-4cf8-b993-f1005aa89a19;2;GFA 250mm;;;;458c0e49-01bb-11d5-9302-0000863f251b;Level_02;05587af9-f099-4553-a05b-106372672cd3;;458c0e49-01bb-11d5-9302-0000863f251b;Level_02;IfcBuildingStorey;Level_02
896fe30b-f906-4f8f-ae4e-8806fd16f48c;2;GFA;;;;458c0e49-01bb-11d5-9302-0000863f251b;Level_02;05587af9-f099-4553-a05b-106372672cd3;;458c0e49-01bb-11d5-9302-0000863f251b;Level_02;IfcBuildingStorey;Level_02
91b4cedc-2da1-4880-a019-98ad19f16e73;2;HEATED NETAREA;;;;458c0e49-01bb-11d5-9302-0000863f251b;Level_02;05587af9-f099-4553-a05b-106372672cd3;;458c0e49-01bb-11d5-9302-0000863f251b;Level_02;IfcBuildingStorey;Level_02
896fe30b-f906-4f8f-ae4e-8806fd16f487;3;GFA;;;;;;;;2d99307a-66cd-4439-b173-5c88d252647c;Gross Building;IfcGroup;
88536540-92b3-4cf8-b993-f1005aa89a21;3;GFA 250mm;;;;;;;;fc163a3e-7294-459a-b978-503273033007;Kerrosala;IfcGroup;
91b4cedc-2da1-4880-a019-98ad19f16ec6;3;HEATED NETAREA;;;;;;;;a72e48c5-05d6-4017-83b3-c7fee6b88e05;Lämmitetty nettoala;IfcGroup;
88536540-92b3-4cf8-b993-f1005aa89a21;3;GFA 250mm;;;;fa6d430e-becf-4766-8734-2958fea68219;Level_03;05587af9-f099-4553-a05b-106372672cd3;;fa6d430e-becf-4766-8734-2958fea68219;Level_03;IfcBuildingStorey;Level_03
896fe30b-f906-4f8f-ae4e-8806fd16f487;3;GFA;;;;fa6d430e-becf-4766-8734-2958fea68219;Level_03;05587af9-f099-4553-a05b-106372672cd3;;fa6d430e-becf-4766-8734-2958fea68219;Level_03;IfcBuildingStorey;Level_03
91b4cedc-2da1-4880-a019-98ad19f16ec6;3;HEATED NETAREA;;;;fa6d430e-becf-4766-8734-2958fea68219;Level_03;05587af9-f099-4553-a05b-106372672cd3;;fa6d430e-becf-4766-8734-2958fea68219;Level_03;IfcBuildingStorey;Level_03
896fe30b-f906-4f8f-ae4e-8806fd16f4bc;4;GFA;;;;;;;;2d99307a-66cd-4439-b173-5c88d252647c;Gross Building;IfcGroup;
88536540-92b3-4cf8-b993-f1005aa89a29;4;GFA 250mm;;;;;;;;fc163a3e-7294-459a-b978-503273033007;Kerrosala;IfcGroup;
d7b448dd-a18e-4e8c-a527-87ca9022d380;4;Lämmitetty nettoala;;;;;;;;a72e48c5-05d6-4017-83b3-c7fee6b88e05;Lämmitetty nettoala;IfcGroup;
88536540-92b3-4cf8-b993-f1005aa89a29;4;GFA 250mm;;;;be768381-8d69-4d59-bdb6-bc2a005db069;Level_04;05587af9-f099-4553-a05b-106372672cd3;;be768381-8d69-4d59-bdb6-bc2a005db069;Level_04;IfcBuildingStorey;Level_04
896fe30b-f906-4f8f-ae4e-8806fd16f4bc;4;GFA;;;;be768381-8d69-4d59-bdb6-bc2a005db069;Level_04;05587af9-f099-4553-a05b-106372672cd3;;be768381-8d69-4d59-bdb6-bc2a005db069;Level_04;IfcBuildingStorey;Level_04
d7b448dd-a18e-4e8c-a527-87ca9022d380;4;Lämmitetty nettoala;;;;be768381-8d69-4d59-bdb6-bc2a005db069;Level_04;05587af9-f099-4553-a05b-106372672cd3;;be768381-8d69-4d59-bdb6-bc2a005db069;Level_04;IfcBuildingStorey;Level_04
b8ecb908-5f21-4971-9efe-e7c6855402c5;AS-1.01;ROOM;Apartment 02.HSTO.AS1;Apartment 02.HSTO.AS1;Private Parts - Apartment;458c0e49-01bb-11d5-9302-0000863f251b;Level_02;05587af9-f099-4553-a05b-106372672cd3;;458c0e49-01bb-11d5-9302-0000863f251b;Level_02;IfcBuildingStorey;Level_02
b8ecb908-5f21-4971-9efe-e7c685540175;AS-1.02;KITCHEN;Apartment 02.HSTO.AS1;Apartment 02.HSTO.AS1;Private Parts - Apartment;458c0e49-01bb-11d5-9302-0000863f251b;Level_02;05587af9-f099-4553-a05b-106372672cd3;;458c0e49-01bb-11d5-9302-0000863f251b;Level_02;IfcBuildingStorey;Level_02
b8ecb908-5f21-4971-9efe-e7c6855402e4;AS-1.03;VESTIBULE;Apartment 02.HSTO.AS1;Apartment 02.HSTO.AS1;Private Parts - Apartment;458c0e49-01bb-11d5-9302-0000863f251b;Level_02;05587af9-f099-4553-a05b-106372672cd3;;458c0e49-01bb-11d5-9302-0000863f251b;Level_02;IfcBuildingStorey;Level_02
b8ecb908-5f21-4971-9efe-e7c6855402c2;AS-1.04;BATHROOM;Apartment 02.HSTO.AS1;Apartment 02.HSTO.AS1;Private Parts - Apartment;458c0e49-01bb-11d5-9302-0000863f251b;Level_02;05587af9-f099-4553-a05b-106372672cd3;;458c0e49-01bb-11d5-9302-0000863f251b;Level_02;IfcBuildingStorey;Level_02
b8ecb908-5f21-4971-9efe-e7c6855402cf;AS-1.05;ROOM;Apartment 02.HSTO.AS1;Apartment 02.HSTO.AS1;Private Parts - Apartment;458c0e49-01bb-11d5-9302-0000863f251b;Level_02;05587af9-f099-4553-a05b-106372672cd3;;458c0e49-01bb-11d5-9302-0000863f251b;Level_02;IfcBuildingStorey;Level_02
b8ecb908-5f21-4971-9efe-e7c6855402cc;AS-1.06;ROOM;Apartment 02.HSTO.AS1;Apartment 02.HSTO.AS1;Private Parts - Apartment;458c0e49-01bb-11d5-9302-0000863f251b;Level_02;05587af9-f099-4553-a05b-106372672cd3;;458c0e49-01bb-11d5-9302-0000863f251b;Level_02;IfcBuildingStorey;Level_02
b8ecb908-5f21-4971-9efe-e7c6855402fd;BATHROOM:1717909;BATHROOM;Apartment 02.HSTO.AS2;Apartment 02.HSTO.AS2;Private Parts - Apartment;458c0e49-01bb-11d5-9302-0000863f251b;Level_02;05587af9-f099-4553-a05b-106372672cd3;;458c0e49-01bb-11d5-9302-0000863f251b;Level_02;IfcBuildingStorey;Level_02
328f0778-34bd-44b8-8007-d579f58d69b0;BATHROOM:1721299;BATHROOM;Apartment 03.HSTO.AS3;Apartment 03.HSTO.AS3;Private Parts - Apartment;fa6d430e-becf-4766-8734-2958fea68219;Level_03;05587af9-f099-4553-a05b-106372672cd3;;fa6d430e-becf-4766-8734-2958fea68219;Level_03;IfcBuildingStorey;Level_03
328f0778-34bd-44b8-8007-d579f58d69b5;BATHROOM:1721302;BATHROOM;Apartment 03.HSTO.AS4;Apartment 03.HSTO.AS4;Private Parts - Apartment;fa6d430e-becf-4766-8734-2958fea68219;Level_03;05587af9-f099-4553-a05b-106372672cd3;;fa6d430e-becf-4766-8734-2958fea68219;Level_03;IfcBuildingStorey;Level_03
65d681d3-06bc-4853-be8c-94f762e8ece8;BATHROOM:1721420;BATHROOM;Apartment 04.HSTO.AS6;Apartment 04.HSTO.AS6;Private Parts - Apartment;be768381-8d69-4d59-bdb6-bc2a005db069;Level_04;05587af9-f099-4553-a05b-106372672cd3;;be768381-8d69-4d59-bdb6-bc2a005db069;Level_04;IfcBuildingStorey;Level_04
65d681d3-06bc-4853-be8c-94f762e8ecff;BATHROOM:1721435;BATHROOM;Apartment 04.HSTO.AS5;Apartment 04.HSTO.AS5;Private Parts - Apartment;be768381-8d69-4d59-bdb6-bc2a005db069;Level_04;05587af9-f099-4553-a05b-106372672cd3;;be768381-8d69-4d59-bdb6-bc2a005db069;Level_04;IfcBuildingStorey;Level_04
81061638-91e9-465c-a3a8-d58402082bf8;BUSINESS SPACE:1403563;BUSINESS SPACE;Business Space 00;Business Space 00;Private Parts - Business;be768381-8d69-4d59-bdb6-bc2a005db3ad;Basement;05587af9-f099-4553-a05b-106372672cd3;;be768381-8d69-4d59-bdb6-bc2a005db3ad;Basement;IfcBuildingStorey;Basement
7bc5c2dc-4e14-4a26-a51e-bf738776bb83;CHASE:1797166;CHASE;Common;Common;Common Parts;e3e052f9-0156-11d5-9301-0000863f269a;Level_01;05587af9-f099-4553-a05b-106372672cd3;;e3e052f9-0156-11d5-9301-0000863f269a;Level_01;IfcBuildingStorey;Level_01
6672f17d-fc44-4f8a-b964-d661c2eb32f9;CHASE:1828882;CHASE;Common;Common;Common Parts;be768381-8d69-4d59-bdb6-bc2a005db3ad;Basement;05587af9-f099-4553-a05b-106372672cd3;;be768381-8d69-4d59-bdb6-bc2a005db3ad;Basement;IfcBuildingStorey;Basement
6672f17d-fc44-4f8a-b964-d661c2eb32cf;CHASE:1828900;CHASE;Common;Common;Common Parts;be768381-8d69-4d59-bdb6-bc2a005db3ad;Basement;05587af9-f099-4553-a05b-106372672cd3;;be768381-8d69-4d59-bdb6-bc2a005db3ad;Basement;IfcBuildingStorey;Basement
6672f17d-fc44-4f8a-b964-d661c2eb32d6;CHASE:1828925;CHASE;Common;Common;Common Parts;e3e052f9-0156-11d5-9301-0000863f269a;Level_01;05587af9-f099-4553-a05b-106372672cd3;;e3e052f9-0156-11d5-9301-0000863f269a;Level_01;IfcBuildingStorey;Level_01
548ae42c-2e97-499d-bbef-0dab844507cc;CHASE:2000698;CHASE;Common;Common;Common Parts;e3e052f9-0156-11d5-9301-0000863f269a;Level_01;05587af9-f099-4553-a05b-106372672cd3;;e3e052f9-0156-11d5-9301-0000863f269a;Level_01;IfcBuildingStorey;Level_01
c62eca08-0b22-4423-885a-82cb1c458ca1;CHASE:2001010;CHASE;Common;Common;Common Parts;458c0e49-01bb-11d5-9302-0000863f251b;Level_02;05587af9-f099-4553-a05b-106372672cd3;;458c0e49-01bb-11d5-9302-0000863f251b;Level_02;IfcBuildingStorey;Level_02
47d08206-8270-4615-8dcd-e85167945da0;CHASE:2001048;CHASE;Common;Common;Common Parts;458c0e49-01bb-11d5-9302-0000863f251b;Level_02;05587af9-f099-4553-a05b-106372672cd3;;458c0e49-01bb-11d5-9302-0000863f251b;Level_02;IfcBuildingStorey;Level_02
30dc55ea-b988-4f9b-95f9-6fcc4a279799;CHASE:2018850;CHASE;Common;Common;Common Parts;e3e052f9-0156-11d5-9301-0000863f269a;Level_01;05587af9-f099-4553-a05b-106372672cd3;;e3e052f9-0156-11d5-9301-0000863f269a;Level_01;IfcBuildingStorey;Level_01
8477b430-2492-4f97-96e9-11353b552ba4;CHASE:2021701;CHASE;Common;Common;Common Parts;458c0e49-01bb-11d5-9302-0000863f251b;Level_02;05587af9-f099-4553-a05b-106372672cd3;;458c0e49-01bb-11d5-9302-0000863f251b;Level_02;IfcBuildingStorey;Level_02
d9c3bdc8-8b33-424a-b7c7-de3a24957d8f;COMMUNAL SPACE:1401781;COMMUNAL SPACE;Communal Space 01;Communal Space 01;Private Parts - Amenities;e3e052f9-0156-11d5-9301-0000863f269a;Level_01;05587af9-f099-4553-a05b-106372672cd3;;e3e052f9-0156-11d5-9301-0000863f269a;Level_01;IfcBuildingStorey;Level_01
cf6c0021-77a5-4b2a-9008-16a3d2cad1d3;GYM:1434404;GYM;Fitness Center 00;Fitness Center 00;Private Parts - Amenities;be768381-8d69-4d59-bdb6-bc2a005db3ad;Basement;05587af9-f099-4553-a05b-106372672cd3;;be768381-8d69-4d59-bdb6-bc2a005db3ad;Basement;IfcBuildingStorey;Basement
4d8f6734-79be-4a6f-95cc-16cb47361200;HEATING:1963182;HEATING;Common;Common;Common Parts;be768381-8d69-4d59-bdb6-bc2a005db3ad;Basement;05587af9-f099-4553-a05b-106372672cd3;;be768381-8d69-4d59-bdb6-bc2a005db3ad;Basement;IfcBuildingStorey;Basement
253094fc-434f-4cef-a9e5-e2927b1f48ee;HSTO.AS1;3H+K+WC+KPH;Apartment 02.HSTO.AS1;Apartment 02.HSTO.AS1;Private Parts - Apartment;458c0e49-01bb-11d5-9302-0000863f251b;Level_02;05587af9-f099-4553-a05b-106372672cd3;;458c0e49-01bb-11d5-9302-0000863f251b;Level_02;IfcBuildingStorey;Level_02
253094fc-434f-4cef-a9e5-e2927b1f48ee;HSTO.AS1;3H+K+WC+KPH;;;;;;;;2d99307a-66cd-4439-b173-5c88d2526478;Rentable;IfcGroup;
2d39cdcf-21f9-44c8-b3e9-78c2dd008966;HSTO.AS2;4H+K+WC+KPH+S;Apartment 02.HSTO.AS2;Apartment 02.HSTO.AS2;Private Parts - Apartment;458c0e49-01bb-11d5-9302-0000863f251b;Level_02;05587af9-f099-4553-a05b-106372672cd3;;458c0e49-01bb-11d5-9302-0000863f251b;Level_02;IfcBuildingStorey;Level_02
2d39cdcf-21f9-44c8-b3e9-78c2dd008966;HSTO.AS2;4H+K+WC+KPH+S;;;;;;;;2d99307a-66cd-4439-b173-5c88d2526478;Rentable;IfcGroup;
7066aef8-6cc6-40b2-93dc-7631dd0c0083;HSTO.AS3;3H+K+WC+KPH;Apartment 03.HSTO.AS3;Apartment 03.HSTO.AS3;Private Parts - Apartment;fa6d430e-becf-4766-8734-2958fea68219;Level_03;05587af9-f099-4553-a05b-106372672cd3;;fa6d430e-becf-4766-8734-2958fea68219;Level_03;IfcBuildingStorey;Level_03
7066aef8-6cc6-40b2-93dc-7631dd0c0083;HSTO.AS3;3H+K+WC+KPH;;;;;;;;2d99307a-66cd-4439-b173-5c88d2526478;Rentable;IfcGroup;
7066aef8-6cc6-40b2-93dc-7631dd0c008f;HSTO.AS4;4H+K+WC+KPH+S;Apartment 03.HSTO.AS4;Apartment 03.HSTO.AS3;Private Parts - Apartment;fa6d430e-becf-4766-8734-2958fea68219;Level_03;05587af9-f099-4553-a05b-106372672cd3;;fa6d430e-becf-4766-8734-2958fea68219;Level_03;IfcBuildingStorey;Level_03
7066aef8-6cc6-40b2-93dc-7631dd0c008f;HSTO.AS4;4H+K+WC+KPH+S;;;;;;;;2d99307a-66cd-4439-b173-5c88d2526478;Rentable;IfcGroup;
7066aef8-6cc6-40b2-93dc-7631dd0c03f1;HSTO.AS5;3H+K+WC+KPH;Apartment 04.HSTO.AS5;Apartment 04.HSTO.AS5;Private Parts - Apartment;be768381-8d69-4d59-bdb6-bc2a005db069;Level_04;05587af9-f099-4553-a05b-106372672cd3;;be768381-8d69-4d59-bdb6-bc2a005db069;Level_04;IfcBuildingStorey;Level_04
7066aef8-6cc6-40b2-93dc-7631dd0c03f1;HSTO.AS5;3H+K+WC+KPH;;;;;;;;2d99307a-66cd-4439-b173-5c88d2526478;Rentable;IfcGroup;
7066aef8-6cc6-40b2-93dc-7631dd0c03fd;HSTO.AS6;4H+K+WC+KPH+S;Apartment 04.HSTO.AS6;Apartment 04.HSTO.AS6;Private Parts - Apartment;be768381-8d69-4d59-bdb6-bc2a005db069;Level_04;05587af9-f099-4553-a05b-106372672cd3;;be768381-8d69-4d59-bdb6-bc2a005db069;Level_04;IfcBuildingStorey;Level_04
7066aef8-6cc6-40b2-93dc-7631dd0c03fd;HSTO.AS6;4H+K+WC+KPH+S;;;;;;;;2d99307a-66cd-4439-b173-5c88d2526478;Rentable;IfcGroup;
320797ea-50ce-4b66-9c22-6e014de1472b;K;GFA;;;;be768381-8d69-4d59-bdb6-bc2a005db3ad;Basement;05587af9-f099-4553-a05b-106372672cd3;;be768381-8d69-4d59-bdb6-bc2a005db3ad;Basement;IfcBuildingStorey;Basement
91b4cedc-2da1-4880-a019-98ad19f16fd9;K;HEATED NETAREA;;;;be768381-8d69-4d59-bdb6-bc2a005db3ad;Basement;05587af9-f099-4553-a05b-106372672cd3;;be768381-8d69-4d59-bdb6-bc2a005db3ad;Basement;IfcBuildingStorey;Basement
320797ea-50ce-4b66-9c22-6e014de1472b;K;GFA;;;;;;;;2d99307a-66cd-4439-b173-5c88d252647c;Gross Building;IfcGroup;
91b4cedc-2da1-4880-a019-98ad19f16fd9;K;HEATED NETAREA;;;;;;;;a72e48c5-05d6-4017-83b3-c7fee6b88e05;Lämmitetty nettoala;IfcGroup;
fb913978-b782-4d75-8662-3ba8b91393c0;KITCHEN:1713710;KITCHEN;Communal Space 01;Communal Space 01;Private Parts - Amenities;e3e052f9-0156-11d5-9301-0000863f269a;Level_01;05587af9-f099-4553-a05b-106372672cd3;;e3e052f9-0156-11d5-9301-0000863f269a;Level_01;IfcBuildingStorey;Level_01
b8ecb908-5f21-4971-9efe-e7c6855402f3;KITCHEN:1717915;KITCHEN;Apartment 02.HSTO.AS2;Apartment 02.HSTO.AS2;Private Parts - Apartment;458c0e49-01bb-11d5-9302-0000863f251b;Level_02;05587af9-f099-4553-a05b-106372672cd3;;458c0e49-01bb-11d5-9302-0000863f251b;Level_02;IfcBuildingStorey;Level_02
328f0778-34bd-44b8-8007-d579f58d69a7;KITCHEN:1721284;KITCHEN;Apartment 03.HSTO.AS3;Apartment 03.HSTO.AS3;Private Parts - Apartment;fa6d430e-becf-4766-8734-2958fea68219;Level_03;05587af9-f099-4553-a05b-106372672cd3;;fa6d430e-becf-4766-8734-2958fea68219;Level_03;IfcBuildingStorey;Level_03
328f0778-34bd-44b8-8007-d579f58d69a4;KITCHEN:1721287;KITCHEN;Apartment 03.HSTO.AS4;Apartment 03.HSTO.AS4;Private Parts - Apartment;fa6d430e-becf-4766-8734-2958fea68219;Level_03;05587af9-f099-4553-a05b-106372672cd3;;fa6d430e-becf-4766-8734-2958fea68219;Level_03;IfcBuildingStorey;Level_03
65d681d3-06bc-4853-be8c-94f762e8ece7;KITCHEN:1721411;KITCHEN;Apartment 04.HSTO.AS5;Apartment 04.HSTO.AS5;Private Parts - Apartment;be768381-8d69-4d59-bdb6-bc2a005db069;Level_04;05587af9-f099-4553-a05b-106372672cd3;;be768381-8d69-4d59-bdb6-bc2a005db069;Level_04;IfcBuildingStorey;Level_04
65d681d3-06bc-4853-be8c-94f762e8ece2;KITCHEN:1721414;KITCHEN;Apartment 04.HSTO.AS6;Apartment 04.HSTO.AS6;Private Parts - Apartment;be768381-8d69-4d59-bdb6-bc2a005db069;Level_04;05587af9-f099-4553-a05b-106372672cd3;;be768381-8d69-4d59-bdb6-bc2a005db069;Level_04;IfcBuildingStorey;Level_04
e6d91338-448c-4dbc-a702-10a95c33f1c9;KITCHEN:1880390;KITCHEN;Business Space 00;Business Space 00;Private Parts - Business;be768381-8d69-4d59-bdb6-bc2a005db3ad;Basement;05587af9-f099-4553-a05b-106372672cd3;;be768381-8d69-4d59-bdb6-bc2a005db3ad;Basement;IfcBuildingStorey;Basement
5ca07fc8-306e-458d-9c07-aaee5e911588;LIFT:1702440;LIFT;Common;Common;Common Parts;be768381-8d69-4d59-bdb6-bc2a005db3ad;Basement;05587af9-f099-4553-a05b-106372672cd3;;be768381-8d69-4d59-bdb6-bc2a005db3ad;Basement;IfcBuildingStorey;Basement
81061638-91e9-465c-a3a8-d58402082ecb;LOCKER ROOM:1404824;LOCKER ROOM;Fitness Center 00;Fitness Center 00;Private Parts - Amenities;be768381-8d69-4d59-bdb6-bc2a005db3ad;Basement;05587af9-f099-4553-a05b-106372672cd3;;be768381-8d69-4d59-bdb6-bc2a005db3ad;Basement;IfcBuildingStorey;Basement
da3e7aea-b630-46a8-8f61-d0c638cb0b66;PARKING / ACCESSIBLE:1402214;PARKING / ACCESSIBLE;Parking 01;Parking 01;Parking;e3e052f9-0156-11d5-9301-0000863f269a;Level_01;05587af9-f099-4553-a05b-106372672cd3;;e3e052f9-0156-11d5-9301-0000863f269a;Level_01;IfcBuildingStorey;Level_01
d9c3bdc8-8b33-424a-b7c7-de3a249545ae;Pyörähdysympyrä 1:Turning Free Space 1500:1399700;;;;;;;;;da3e7aea-b630-46a8-8f61-d0c638cb0915;TOILET / ACCESSIBLE:1402645;IfcSpace;TOILET / ACCESSIBLE
9a276414-7f3c-4b29-b86f-22fcbcfa93ef;Pyörähdysympyrä 10:Turning Free Space 1500:1698425;;;;;;;;;65d681d3-06bc-4853-be8c-94f762e8ecfa;ROOM:1721438;IfcSpace;ROOM
49931984-2f31-41ef-a32d-0e9f4fb56634;Pyörähdysympyrä 11:Turning Free Space 1500:1567106;;;;;;;;;65d681d3-06bc-4853-be8c-94f762e8ecff;BATHROOM:1721435;IfcSpace;BATHROOM
cb42a962-2ae3-4df4-8dfb-f3e6c5096d64;Pyörähdysympyrä 12:Turning Free Space 1500:1672322;;;;;;;;;b8ecb908-5f21-4971-9efe-e7c68554079b;STAIRCASE:1717235;IfcSpace;STAIRCASE
cb42a962-2ae3-4df4-8dfb-f3e6c5096d29;Pyörähdysympyrä 13:Turning Free Space 1500:1672399;;;;;;;;;c54f3399-552a-417f-a507-cf8cda4a2f64;STAIRCASE:1721370;IfcSpace;STAIRCASE
cb42a962-2ae3-4df4-8dfb-f3e6c5096d3e;Pyörähdysympyrä 14:Turning Free Space 1500:1672408;;;;;;;;;65d681d3-06bc-4853-be8c-94f762e8ecd7;STAIRCASE:1721459;IfcSpace;STAIRCASE
94ab1f59-05b5-43d7-a886-3ceb2138b4ee;Pyörähdysympyrä 15:Turning Free Space 1500:1693688;;;;;;;;;fb913978-b782-4d75-8662-3ba8b91393c0;KITCHEN:1713710;IfcSpace;KITCHEN
e4940126-4962-4810-9387-9cb2fb5f48cf;Pyörähdysympyrä 16:Turning Free Space 1500:1698190;;;;;;;;;328f0778-34bd-44b8-8007-d579f58d69bc;ROOM:1721311;IfcSpace;ROOM
9a276414-7f3c-4b29-b86f-22fcbcfa9380;Pyörähdysympyrä 17:Turning Free Space 1500:1698326;;;;;;;;;b8ecb908-5f21-4971-9efe-e7c6855402cf;AS-1.05;IfcSpace;ROOM
9a276414-7f3c-4b29-b86f-22fcbcfa93bd;Pyörähdysympyrä 18:Turning Free Space 1500:1698347;;;;;;;;;b8ecb908-5f21-4971-9efe-e7c6855402cc;AS-1.06;IfcSpace;ROOM
9a276414-7f3c-4b29-b86f-22fcbcfa9318;Pyörähdysympyrä 19:Turning Free Space 1500:1698446;;;;;;;;;65d681d3-06bc-4853-be8c-94f762e8ecc5;ROOM:1721441;IfcSpace;ROOM
af3f5770-4220-4f3b-9297-5627f56ed5c5;Pyörähdysympyrä 2:Turning Free Space 1500:1498848;;;;;;;;;cf8a9188-d597-45b8-837c-7668edc6a1d0;STAIRCASE:1704856;IfcSpace;STAIRCASE
fd5684ff-8bbd-4f03-b2a3-e4ecb9383986;Pyörähdysympyrä 20:Turning Free Space 1500:1714068;;;;;;;;;cf6c0021-77a5-4b2a-9008-16a3d2cad407;TOILET / ACCESSIBLE:1435376;IfcSpace;TOILET / ACCESSIBLE
7f525984-47bd-4ce6-bbcb-97a6811a148b;Pyörähdysympyrä 21:Turning Free Space 1500:1719749;;;;;;;;;b8ecb908-5f21-4971-9efe-e7c685540175;AS-1.02;IfcSpace;KITCHEN
8617e82a-caa9-434d-888b-c4d96f8ec2c3;Pyörähdysympyrä 22:Turning Free Space 1500:1720355;;;;;;;;;60dd3868-a488-4c3e-9b1a-3b4b04818e85;STORE RESIDENTS:1409016;IfcSpace;STORE RESIDENTS
833c767a-e5ec-4f10-8b31-ee41f9581637;Pyörähdysympyrä 23:Turning Free Space 1500:1723946;;;;;;;;;bb5ff938-1bb6-4260-baa2-106c2f52876c;SAUNA:1702219;IfcSpace;SAUNA
9032d952-8cfd-4440-8b21-ef272e1bc71b;Pyörähdysympyrä 24:Turning Free Space 1500:1759208;;;;;;;;;328f0778-34bd-44b8-8007-d579f58d69a7;KITCHEN:1721284;IfcSpace;KITCHEN
9032d952-8cfd-4440-8b21-ef272e1bc70e;Pyörähdysympyrä 25:Turning Free Space 1500:1759229;;;;;;;;;65d681d3-06bc-4853-be8c-94f762e8ece7;KITCHEN:1721411;IfcSpace;KITCHEN
0eb52b54-fd22-4a10-a814-0bc36045fa88;Pyörähdysympyrä 26:Turning Free Space 1500:1818732;;;;;;;;;d9c3bdc8-8b33-424a-b7c7-de3a24957d8f;COMMUNAL SPACE:1401781;IfcSpace;COMMUNAL SPACE
d881150a-cf45-4f59-b080-48879ce33485;Pyörähdysympyrä 27:Turning Free Space 1500:1824289;;;;;;;;;da3e7aea-b630-46a8-8f61-d0c638cb0b66;PARKING / ACCESSIBLE:1402214;IfcSpace;PARKING / ACCESSIBLE
38500890-dc96-45c9-be66-f8523ab93a3d;Pyörähdysympyrä 28:Turning Free Space 1300:1883965;;;;;;;;;b8ecb908-5f21-4971-9efe-e7c6855402f3;KITCHEN:1717915;IfcSpace;KITCHEN
38500890-dc96-45c9-be66-f8523ab93a66;Pyörähdysympyrä 29:Turning Free Space 1300:1884006;;;;;;;;;b8ecb908-5f21-4971-9efe-e7c6855402e7;VESTIBULE:1717903;IfcSpace;VESTIBULE
0d3b5d91-d2cf-4b65-8047-e9e7b4e3feb2;Pyörähdysympyrä 3:Turning Free Space 1500:2178242;;;;;;;;;5ca07fc8-306e-458d-9c07-aaee5e9116da;STAIRCASE:1702266;IfcSpace;STAIRCASE
38500890-dc96-45c9-be66-f8523ab9450c;Pyörähdysympyrä 30:Turning Free Space 1300:1884172;;;;;;;;;328f0778-34bd-44b8-8007-d579f58d69ae;VESTIBULE:1721293;IfcSpace;VESTIBULE
38500890-dc96-45c9-be66-f8523ab94515;Pyörähdysympyrä 31:Turning Free Space 1300:1884181;;;;;;;;;328f0778-34bd-44b8-8007-d579f58d69a4;KITCHEN:1721287;IfcSpace;KITCHEN
38500890-dc96-45c9-be66-f8523ab9451e;Pyörähdysympyrä 32:Turning Free Space 1300:1884190;;;;;;;;;328f0778-34bd-44b8-8007-d579f58d69ae;VESTIBULE:1721293;IfcSpace;VESTIBULE
38500890-dc96-45c9-be66-f8523ab94545;Pyörähdysympyrä 33:Turning Free Space 1300:1884229;;;;;;;;;65d681d3-06bc-4853-be8c-94f762e8ecf1;VESTIBULE:1721429;IfcSpace;VESTIBULE
38500890-dc96-45c9-be66-f8523ab9454e;Pyörähdysympyrä 34:Turning Free Space 1300:1884238;;;;;;;;;65d681d3-06bc-4853-be8c-94f762e8ece2;KITCHEN:1721414;IfcSpace;KITCHEN
38500890-dc96-45c9-be66-f8523ab94557;Pyörähdysympyrä 35:Turning Free Space 1300:1884247;;;;;;;;;65d681d3-06bc-4853-be8c-94f762e8ecf1;VESTIBULE:1721429;IfcSpace;VESTIBULE
23bafde2-2e19-4521-9ac3-c480b0afee36;Pyörähdysympyrä 36:Turning Free Space 1500:1886946;;;;;;;;;328f0778-34bd-44b8-8007-d579f58d69b3;VESTIBULE:1721296;IfcSpace;VESTIBULE
23bafde2-2e19-4521-9ac3-c480b0afeff6;Pyörähdysympyrä 37:Turning Free Space 1500:1887010;;;;;;;;;65d681d3-06bc-4853-be8c-94f762e8ecfc;VESTIBULE:1721432;IfcSpace;VESTIBULE
23bafde2-2e19-4521-9ac3-c480b0afef94;Pyörähdysympyrä 38:Turning Free Space 1500:1887040;;;;;;;;;b8ecb908-5f21-4971-9efe-e7c6855402e4;AS-1.03;IfcSpace;VESTIBULE
23bafde2-2e19-4521-9ac3-c480b0afef9d;Pyörähdysympyrä 39:Turning Free Space 1500:1887049;;;;;;;;;b8ecb908-5f21-4971-9efe-e7c6855402e4;AS-1.03;IfcSpace;VESTIBULE
4f9f9c8e-87c3-4dbb-bc67-8923e8b11ba2;Pyörähdysympyrä 4:Turning Free Space 1500:1546465;;;;;;;;;b8ecb908-5f21-4971-9efe-e7c6855402c2;AS-1.04;IfcSpace;BATHROOM
5e09a656-a98c-4a96-a258-01bdbce4dd5d;Pyörähdysympyrä 40:Turning Free Space 1500:1903542;;;;;;;;;e6d91338-448c-4dbc-a702-10a95c33f1c9;KITCHEN:1880390;IfcSpace;KITCHEN
f2f44971-f998-4af9-8a33-8be9309abf5a;Pyörähdysympyrä 41:Turning Free Space 1500:1961067;;;;;;;;;e779a225-68fd-429f-b944-faaf70e06cca;VESTIBULE:1398339;IfcSpace;VESTIBULE
38500890-dc96-45c9-be66-f8523ab93a2c;Pyörähdysympyrä 42:Turning Free Space 1300:1883948;;;;;;;;;b8ecb908-5f21-4971-9efe-e7c6855402e7;VESTIBULE:1717903;IfcSpace;VESTIBULE
d9c3bdc8-8b33-424a-b7c7-de3a24954543;Pyörähdysympyrä 43:Pyörähdysympyrä 1500:1399673;;;;;;;;;cf8a9188-d597-45b8-837c-7668edc6a1d0;STAIRCASE:1704856;IfcSpace;STAIRCASE
88eab001-5367-425b-8f75-fe22bc0ec549;Pyörähdysympyrä 6:Turning Free Space 1500:1551210;;;;;;;;;328f0778-34bd-44b8-8007-d579f58d69b3;VESTIBULE:1721296;IfcSpace;VESTIBULE
88eab001-5367-425b-8f75-fe22bc0ec5d3;Pyörähdysympyrä 7:Turning Free Space 1500:1551344;;;;;;;;;328f0778-34bd-44b8-8007-d579f58d69bf;ROOM:1721308;IfcSpace;ROOM
88eab001-5367-425b-8f75-fe22bc0ec23c;Pyörähdysympyrä 8:Turning Free Space 1500:1551391;;;;;;;;;328f0778-34bd-44b8-8007-d579f58d69b0;BATHROOM:1721299;IfcSpace;BATHROOM
23bafde2-2e19-4521-9ac3-c480b0afefcd;Pyörähdysympyrä 9:Turning Free Space 1500:1887001;;;;;;;;;65d681d3-06bc-4853-be8c-94f762e8ecfc;VESTIBULE:1721432;IfcSpace;VESTIBULE
b8ecb908-5f21-4971-9efe-e7c6855402f0;ROOM:1717912;ROOM;Apartment 02.HSTO.AS2;Apartment 02.HSTO.AS2;Private Parts - Apartment;458c0e49-01bb-11d5-9302-0000863f251b;Level_02;05587af9-f099-4553-a05b-106372672cd3;;458c0e49-01bb-11d5-9302-0000863f251b;Level_02;IfcBuildingStorey;Level_02
b8ecb908-5f21-4971-9efe-e7c6855402f6;ROOM:1717918;ROOM;Apartment 02.HSTO.AS2;Apartment 02.HSTO.AS2;Private Parts - Apartment;458c0e49-01bb-11d5-9302-0000863f251b;Level_02;05587af9-f099-4553-a05b-106372672cd3;;458c0e49-01bb-11d5-9302-0000863f251b;Level_02;IfcBuildingStorey;Level_02
b8ecb908-5f21-4971-9efe-e7c6855402c9;ROOM:1717921;ROOM;Apartment 02.HSTO.AS2;Apartment 02.HSTO.AS2;Private Parts - Apartment;458c0e49-01bb-11d5-9302-0000863f251b;Level_02;05587af9-f099-4553-a05b-106372672cd3;;458c0e49-01bb-11d5-9302-0000863f251b;Level_02;IfcBuildingStorey;Level_02
b8ecb908-5f21-4971-9efe-e7c685540c1c;ROOM:1718388;ROOM;Apartment 02.HSTO.AS2;Apartment 02.HSTO.AS2;Private Parts - Apartment;458c0e49-01bb-11d5-9302-0000863f251b;Level_02;05587af9-f099-4553-a05b-106372672cd3;;458c0e49-01bb-11d5-9302-0000863f251b;Level_02;IfcBuildingStorey;Level_02
b8ecb908-5f21-4971-9efe-e7c685540c12;ROOM:1718394;ROOM;Apartment 02.HSTO.AS2;Apartment 02.HSTO.AS2;Private Parts - Apartment;458c0e49-01bb-11d5-9302-0000863f251b;Level_02;05587af9-f099-4553-a05b-106372672cd3;;458c0e49-01bb-11d5-9302-0000863f251b;Level_02;IfcBuildingStorey;Level_02
328f0778-34bd-44b8-8007-d579f58d69a3;ROOM:1721280;ROOM;Apartment 03.HSTO.AS3;Apartment 03.HSTO.AS3;Private Parts - Apartment;fa6d430e-becf-4766-8734-2958fea68219;Level_03;05587af9-f099-4553-a05b-106372672cd3;;fa6d430e-becf-4766-8734-2958fea68219;Level_03;IfcBuildingStorey;Level_03
328f0778-34bd-44b8-8007-d579f58d69a9;ROOM:1721290;ROOM;Apartment 03.HSTO.AS4;Apartment 03.HSTO.AS4;Private Parts - Apartment;fa6d430e-becf-4766-8734-2958fea68219;Level_03;05587af9-f099-4553-a05b-106372672cd3;;fa6d430e-becf-4766-8734-2958fea68219;Level_03;IfcBuildingStorey;Level_03
328f0778-34bd-44b8-8007-d579f58d69bf;ROOM:1721308;ROOM;Apartment 03.HSTO.AS3;Apartment 03.HSTO.AS3;Private Parts - Apartment;fa6d430e-becf-4766-8734-2958fea68219;Level_03;05587af9-f099-4553-a05b-106372672cd3;;fa6d430e-becf-4766-8734-2958fea68219;Level_03;IfcBuildingStorey;Level_03
328f0778-34bd-44b8-8007-d579f58d69bc;ROOM:1721311;ROOM;Apartment 03.HSTO.AS3;Apartment 03.HSTO.AS3;Private Parts - Apartment;fa6d430e-becf-4766-8734-2958fea68219;Level_03;05587af9-f099-4553-a05b-106372672cd3;;fa6d430e-becf-4766-8734-2958fea68219;Level_03;IfcBuildingStorey;Level_03
328f0778-34bd-44b8-8007-d579f58d6981;ROOM:1721314;ROOM;Apartment 03.HSTO.AS4;Apartment 03.HSTO.AS4;Private Parts - Apartment;fa6d430e-becf-4766-8734-2958fea68219;Level_03;05587af9-f099-4553-a05b-106372672cd3;;fa6d430e-becf-4766-8734-2958fea68219;Level_03;IfcBuildingStorey;Level_03
328f0778-34bd-44b8-8007-d579f58d699d;ROOM:1721342;ROOM;Apartment 03.HSTO.AS4;Apartment 03.HSTO.AS4;Private Parts - Apartment;fa6d430e-becf-4766-8734-2958fea68219;Level_03;05587af9-f099-4553-a05b-106372672cd3;;fa6d430e-becf-4766-8734-2958fea68219;Level_03;IfcBuildingStorey;Level_03
328f0778-34bd-44b8-8007-d579f58d6e62;ROOM:1721345;ROOM;Apartment 03.HSTO.AS4;Apartment 03.HSTO.AS4;Private Parts - Apartment;fa6d430e-becf-4766-8734-2958fea68219;Level_03;05587af9-f099-4553-a05b-106372672cd3;;fa6d430e-becf-4766-8734-2958fea68219;Level_03;IfcBuildingStorey;Level_03
328f0778-34bd-44b8-8007-d579f58d6e67;ROOM:1721348;ROOM;Apartment 03.HSTO.AS4;Apartment 03.HSTO.AS4;Private Parts - Apartment;fa6d430e-becf-4766-8734-2958fea68219;Level_03;05587af9-f099-4553-a05b-106372672cd3;;fa6d430e-becf-4766-8734-2958fea68219;Level_03;IfcBuildingStorey;Level_03
65d681d3-06bc-4853-be8c-94f762e8ec9b;ROOM:1721407;ROOM;Apartment 04.HSTO.AS5;Apartment 04.HSTO.AS5;Private Parts - Apartment;be768381-8d69-4d59-bdb6-bc2a005db069;Level_04;05587af9-f099-4553-a05b-106372672cd3;;be768381-8d69-4d59-bdb6-bc2a005db069;Level_04;IfcBuildingStorey;Level_04
65d681d3-06bc-4853-be8c-94f762e8eced;ROOM:1721417;ROOM;Apartment 04.HSTO.AS6;Apartment 04.HSTO.AS6;Private Parts - Apartment;be768381-8d69-4d59-bdb6-bc2a005db069;Level_04;05587af9-f099-4553-a05b-106372672cd3;;be768381-8d69-4d59-bdb6-bc2a005db069;Level_04;IfcBuildingStorey;Level_04
65d681d3-06bc-4853-be8c-94f762e8ecfa;ROOM:1721438;ROOM;Apartment 04.HSTO.AS5;Apartment 04.HSTO.AS5;Private Parts - Apartment;be768381-8d69-4d59-bdb6-bc2a005db069;Level_04;05587af9-f099-4553-a05b-106372672cd3;;be768381-8d69-4d59-bdb6-bc2a005db069;Level_04;IfcBuildingStorey;Level_04
65d681d3-06bc-4853-be8c-94f762e8ecc5;ROOM:1721441;ROOM;Apartment 04.HSTO.AS5;Apartment 04.HSTO.AS5;Private Parts - Apartment;be768381-8d69-4d59-bdb6-bc2a005db069;Level_04;05587af9-f099-4553-a05b-106372672cd3;;be768381-8d69-4d59-bdb6-bc2a005db069;Level_04;IfcBuildingStorey;Level_04
65d681d3-06bc-4853-be8c-94f762e8ecc0;ROOM:1721444;ROOM;Apartment 04.HSTO.AS6;Apartment 04.HSTO.AS6;Private Parts - Apartment;be768381-8d69-4d59-bdb6-bc2a005db069;Level_04;05587af9-f099-4553-a05b-106372672cd3;;be768381-8d69-4d59-bdb6-bc2a005db069;Level_04;IfcBuildingStorey;Level_04
65d681d3-06bc-4853-be8c-94f762e8ecc3;ROOM:1721447;ROOM;Apartment 04.HSTO.AS6;Apartment 04.HSTO.AS6;Private Parts - Apartment;be768381-8d69-4d59-bdb6-bc2a005db069;Level_04;05587af9-f099-4553-a05b-106372672cd3;;be768381-8d69-4d59-bdb6-bc2a005db069;Level_04;IfcBuildingStorey;Level_04
65d681d3-06bc-4853-be8c-94f762e8ecce;ROOM:1721450;ROOM;Apartment 04.HSTO.AS6;Apartment 04.HSTO.AS6;Private Parts - Apartment;be768381-8d69-4d59-bdb6-bc2a005db069;Level_04;05587af9-f099-4553-a05b-106372672cd3;;be768381-8d69-4d59-bdb6-bc2a005db069;Level_04;IfcBuildingStorey;Level_04
65d681d3-06bc-4853-be8c-94f762e8ecc9;ROOM:1721453;ROOM;Apartment 04.HSTO.AS6;Apartment 04.HSTO.AS6;Private Parts - Apartment;be768381-8d69-4d59-bdb6-bc2a005db069;Level_04;05587af9-f099-4553-a05b-106372672cd3;;be768381-8d69-4d59-bdb6-bc2a005db069;Level_04;IfcBuildingStorey;Level_04
bb5ff938-1bb6-4260-baa2-106c2f52876c;SAUNA:1702219;SAUNA;Fitness Center 00;Fitness Center 00;;be768381-8d69-4d59-bdb6-bc2a005db3ad;Basement;05587af9-f099-4553-a05b-106372672cd3;;be768381-8d69-4d59-bdb6-bc2a005db3ad;Basement;IfcBuildingStorey;Basement
b8ecb908-5f21-4971-9efe-e7c685540c15;SAUNA:1718397;SAUNA;Apartment 02.HSTO.AS2;Apartment 02.HSTO.AS2;Private Parts - Apartment;458c0e49-01bb-11d5-9302-0000863f251b;Level_02;05587af9-f099-4553-a05b-106372672cd3;;458c0e49-01bb-11d5-9302-0000863f251b;Level_02;IfcBuildingStorey;Level_02
c54f3399-552a-417f-a507-cf8cda4a2f6a;SAUNA:1721364;SAUNA;Apartment 03.HSTO.AS4;Apartment 03.HSTO.AS4;Private Parts - Apartment;fa6d430e-becf-4766-8734-2958fea68219;Level_03;05587af9-f099-4553-a05b-106372672cd3;;fa6d430e-becf-4766-8734-2958fea68219;Level_03;IfcBuildingStorey;Level_03
65d681d3-06bc-4853-be8c-94f762e8eceb;SAUNA:1721423;SAUNA;Apartment 04.HSTO.AS6;Apartment 04.HSTO.AS6;Private Parts - Apartment;be768381-8d69-4d59-bdb6-bc2a005db069;Level_04;05587af9-f099-4553-a05b-106372672cd3;;be768381-8d69-4d59-bdb6-bc2a005db069;Level_04;IfcBuildingStorey;Level_04
5c4cee52-6518-4ed4-98cf-5fdcbc54494e;SHAFT:2000732;SHAFT;Common;Common;Common Parts;e3e052f9-0156-11d5-9301-0000863f269a;Level_01;05587af9-f099-4553-a05b-106372672cd3;;e3e052f9-0156-11d5-9301-0000863f269a;Level_01;IfcBuildingStorey;Level_01
5ca07fc8-306e-458d-9c07-aaee5e9116da;STAIRCASE:1702266;STAIRCASE;Staircase;Staircase;Common Parts;be768381-8d69-4d59-bdb6-bc2a005db3ad;Basement;05587af9-f099-4553-a05b-106372672cd3;;be768381-8d69-4d59-bdb6-bc2a005db3ad;Basement;IfcBuildingStorey;Basement
cf8a9188-d597-45b8-837c-7668edc6a1d0;STAIRCASE:1704856;STAIRCASE;Staircase;Staircase;Common Parts;e3e052f9-0156-11d5-9301-0000863f269a;Level_01;05587af9-f099-4553-a05b-106372672cd3;;e3e052f9-0156-11d5-9301-0000863f269a;Level_01;IfcBuildingStorey;Level_01
b8ecb908-5f21-4971-9efe-e7c68554079b;STAIRCASE:1717235;STAIRCASE;Staircase;Staircase;Common Parts;458c0e49-01bb-11d5-9302-0000863f251b;Level_02;05587af9-f099-4553-a05b-106372672cd3;;458c0e49-01bb-11d5-9302-0000863f251b;Level_02;IfcBuildingStorey;Level_02
c54f3399-552a-417f-a507-cf8cda4a2f64;STAIRCASE:1721370;STAIRCASE;Staircase;Staircase;Common Parts;fa6d430e-becf-4766-8734-2958fea68219;Level_03;05587af9-f099-4553-a05b-106372672cd3;;fa6d430e-becf-4766-8734-2958fea68219;Level_03;IfcBuildingStorey;Level_03
65d681d3-06bc-4853-be8c-94f762e8ecd7;STAIRCASE:1721459;STAIRCASE;Staircase;Staircase;Common Parts;be768381-8d69-4d59-bdb6-bc2a005db069;Level_04;05587af9-f099-4553-a05b-106372672cd3;;be768381-8d69-4d59-bdb6-bc2a005db069;Level_04;IfcBuildingStorey;Level_04
01ff6bcb-9596-4780-bf9a-bc1e938666ab;STORE COMMON:1438929;STORE COMMON;Store Common;Store Common;Storage;e3e052f9-0156-11d5-9301-0000863f269a;Level_01;05587af9-f099-4553-a05b-106372672cd3;;e3e052f9-0156-11d5-9301-0000863f269a;Level_01;IfcBuildingStorey;Level_01
60dd3868-a488-4c3e-9b1a-3b4b04818e85;STORE RESIDENTS:1409016;STORE RESIDENTS;Store Residents;Store Residents;Storage;be768381-8d69-4d59-bdb6-bc2a005db3ad;Basement;05587af9-f099-4553-a05b-106372672cd3;;be768381-8d69-4d59-bdb6-bc2a005db3ad;Basement;IfcBuildingStorey;Basement
da3e7aea-b630-46a8-8f61-d0c638cb0915;TOILET / ACCESSIBLE:1402645;TOILET / ACCESSIBLE;Communal Space 01;Communal Space 01;Private Parts - Amenities;e3e052f9-0156-11d5-9301-0000863f269a;Level_01;05587af9-f099-4553-a05b-106372672cd3;;e3e052f9-0156-11d5-9301-0000863f269a;Level_01;IfcBuildingStorey;Level_01
cf6c0021-77a5-4b2a-9008-16a3d2cad407;TOILET / ACCESSIBLE:1435376;TOILET / ACCESSIBLE;Fitness Center 00;Fitness Center 00;Private Parts - Amenities;be768381-8d69-4d59-bdb6-bc2a005db3ad;Basement;05587af9-f099-4553-a05b-106372672cd3;;be768381-8d69-4d59-bdb6-bc2a005db3ad;Basement;IfcBuildingStorey;Basement
cf6c0021-77a5-4b2a-9008-16a3d2cad120;TOILET:1434583;TOILET;Business Space 00;Business Space 00;Private Parts - Amenities;be768381-8d69-4d59-bdb6-bc2a005db3ad;Basement;05587af9-f099-4553-a05b-106372672cd3;;be768381-8d69-4d59-bdb6-bc2a005db3ad;Basement;IfcBuildingStorey;Basement
b8ecb908-5f21-4971-9efe-e7c6855402fa;TOILET:1717906;TOILET;Apartment 02.HSTO.AS2;Apartment 02.HSTO.AS2;Private Parts - Apartment;458c0e49-01bb-11d5-9302-0000863f251b;Level_02;05587af9-f099-4553-a05b-106372672cd3;;458c0e49-01bb-11d5-9302-0000863f251b;Level_02;IfcBuildingStorey;Level_02
328f0778-34bd-44b8-8007-d579f58d69ba;TOILET:1721305;TOILET;Apartment 03.HSTO.AS4;Apartment 03.HSTO.AS4;Private Parts - Apartment;fa6d430e-becf-4766-8734-2958fea68219;Level_03;05587af9-f099-4553-a05b-106372672cd3;;fa6d430e-becf-4766-8734-2958fea68219;Level_03;IfcBuildingStorey;Level_03
65d681d3-06bc-4853-be8c-94f762e8ecf6;TOILET:1721426;TOILET;Apartment 04.HSTO.AS6;Apartment 04.HSTO.AS6;Private Parts - Apartment;be768381-8d69-4d59-bdb6-bc2a005db069;Level_04;05587af9-f099-4553-a05b-106372672cd3;;be768381-8d69-4d59-bdb6-bc2a005db069;Level_04;IfcBuildingStorey;Level_04
9648f00b-cbc2-4e86-b81f-2ae292a7b49f;VENT:1962683;VENT;Communal Space 01;Communal Space 01;Private Parts - Amenities;e3e052f9-0156-11d5-9301-0000863f269a;Level_01;05587af9-f099-4553-a05b-106372672cd3;;e3e052f9-0156-11d5-9301-0000863f269a;Level_01;IfcBuildingStorey;Level_01
e779a225-68fd-429f-b944-faaf70e06cca;VESTIBULE:1398339;VESTIBULE;Communal Space 01;Communal Space 01;Private Parts - Amenities;e3e052f9-0156-11d5-9301-0000863f269a;Level_01;05587af9-f099-4553-a05b-106372672cd3;;e3e052f9-0156-11d5-9301-0000863f269a;Level_01;IfcBuildingStorey;Level_01
b8ecb908-5f21-4971-9efe-e7c6855402e7;VESTIBULE:1717903;VESTIBULE;Apartment 02.HSTO.AS2;Apartment 02.HSTO.AS2;Private Parts - Apartment;458c0e49-01bb-11d5-9302-0000863f251b;Level_02;05587af9-f099-4553-a05b-106372672cd3;;458c0e49-01bb-11d5-9302-0000863f251b;Level_02;IfcBuildingStorey;Level_02
328f0778-34bd-44b8-8007-d579f58d69ae;VESTIBULE:1721293;VESTIBULE;Apartment 03.HSTO.AS4;Apartment 03.HSTO.AS4;Private Parts - Apartment;fa6d430e-becf-4766-8734-2958fea68219;Level_03;05587af9-f099-4553-a05b-106372672cd3;;fa6d430e-becf-4766-8734-2958fea68219;Level_03;IfcBuildingStorey;Level_03
328f0778-34bd-44b8-8007-d579f58d69b3;VESTIBULE:1721296;VESTIBULE;Apartment 03.HSTO.AS3;Apartment 03.HSTO.AS3;Private Parts - Apartment;fa6d430e-becf-4766-8734-2958fea68219;Level_03;05587af9-f099-4553-a05b-106372672cd3;;fa6d430e-becf-4766-8734-2958fea68219;Level_03;IfcBuildingStorey;Level_03
65d681d3-06bc-4853-be8c-94f762e8ecf1;VESTIBULE:1721429;VESTIBULE;Apartment 04.HSTO.AS6;Apartment 04.HSTO.AS6;Private Parts - Apartment;be768381-8d69-4d59-bdb6-bc2a005db069;Level_04;05587af9-f099-4553-a05b-106372672cd3;;be768381-8d69-4d59-bdb6-bc2a005db069;Level_04;IfcBuildingStorey;Level_04
65d681d3-06bc-4853-be8c-94f762e8ecfc;VESTIBULE:1721432;VESTIBULE;Apartment 04.HSTO.AS5;Apartment 04.HSTO.AS5;Private Parts - Apartment;be768381-8d69-4d59-bdb6-bc2a005db069;Level_04;05587af9-f099-4553-a05b-106372672cd3;;be768381-8d69-4d59-bdb6-bc2a005db069;Level_04;IfcBuildingStorey;Level_04
29298d3b-f2d5-4460-af71-066af5e53dd9;VOLUME:VOLUME:1876779;;;;;;;;;5ca07fc8-306e-458d-9c07-aaee5e911588;LIFT:1702440;IfcSpace;LIFT
bb5ff938-1bb6-4260-baa2-106c2f52871c;WASHING ROOM:1702203;WASHING ROOM;Fitness Center 00;Fitness Center 00;;be768381-8d69-4d59-bdb6-bc2a005db3ad;Basement;05587af9-f099-4553-a05b-106372672cd3;;be768381-8d69-4d59-bdb6-bc2a005db3ad;Basement;IfcBuildingStorey;Basement